[
    {
        "Altitude(m)": 604969.0891575039,
        "Argument of Periapsis(deg)": 0.0,
        "Eccentricity": 0.0,
        "Inclination(deg)": 60.0,
        "Latitude(deg)": -0.0926783763604593,
        "Longitude(deg)": -15.022472219429947,
        "Mean Anomaly(deg)": 0.0,
        "RAAN(deg)": 85.00000000000001,
        "Satellite Name": "Test1 374",
        "Satellite Number": 374,
        "Semi-Major Axis(m)": 6980739.136638005,
        "Time(s)": 0
    },
    {
        "Altitude(m)": 604900.0285335005,
        "Argument of Periapsis(deg)": 0.00010418945913296404,
        "Eccentricity": 0.0,
        "Inclination(deg)": 60.0,
        "Latitude(deg)": 0.4477480336070624,
        "Longitude(deg)": -14.754350215230636,
        "Mean Anomaly(deg)": 0.6201061454618275,
        "RAAN(deg)": 84.99957995086027,
        "Satellite Name": "Test1 374",
        "Satellite Number": 374,
        "Semi-Major Axis(m)": 6980739.136638005,
        "Time(s)": 10
    },
    {
        "Altitude(m)": 604834.1959845443,
        "Argument of Periapsis(deg)": 0.0002083789182659281,
        "Eccentricity": 0.0,
        "Inclination(deg)": 60.0,
        "Latitude(deg)": 0.9881712181653328,
        "Longitude(deg)": -14.486176801603625,
        "Mean Anomaly(deg)": 1.240212290923655,
        "RAAN(deg)": 84.99915990172053,
        "Satellite Name": "Test1 374",
        "Satellite Number": 374,
        "Semi-Major Axis(m)": 6980739.136638005,
        "Time(s)": 20
    },
    {
        "Altitude(m)": 604771.5978897035,
        "Argument of Periapsis(deg)": 0.00031256837739889213,
        "Eccentricity": 0.0,
        "Inclination(deg)": 60.0,
        "Latitude(deg)": 1.5285740913802244,
        "Longitude(deg)": -14.217897589266867,
        "Mean Anomaly(deg)": 1.8603184363854954,
        "RAAN(deg)": 84.99873985258077,
        "Satellite Name": "Test1 374",
        "Satellite Number": 374,
        "Semi-Major Axis(m)": 6980739.136638005,
        "Time(s)": 30
    },
    {
        "Altitude(m)": 604712.2390981369,
        "Argument of Periapsis(deg)": 0.0004167578365318562,
        "Eccentricity": 0.0,
        "Inclination(deg)": 60.0,
        "Latitude(deg)": 2.0689395458570727,
        "Longitude(deg)": -13.949457620398178,
        "Mean Anomaly(deg)": 2.480424581847323,
        "RAAN(deg)": 84.99831980344103,
        "Satellite Name": "Test1 374",
        "Satellite Number": 374,
        "Semi-Major Axis(m)": 6980739.136638005,
        "Time(s)": 40
    },
    {
        "Altitude(m)": 604656.1229295619,
        "Argument of Periapsis(deg)": 0.0005209472956648203,
        "Eccentricity": 0.0,
        "Inclination(deg)": 60.0,
        "Latitude(deg)": 2.609250442827891,
        "Longitude(deg)": -13.680802345200151,
        "Mean Anomaly(deg)": 3.1005307273091502,
        "RAAN(deg)": 84.99789975430129,
        "Satellite Name": "Test1 374",
        "Satellite Number": 374,
        "Semi-Major Axis(m)": 6980739.136638005,
        "Time(s)": 50
    },
    {
        "Altitude(m)": 604603.2511754234,
        "Argument of Periapsis(deg)": 0.0006251367547977843,
        "Eccentricity": 0.0,
        "Inclination(deg)": 60.0,
        "Latitude(deg)": 3.1494896022012924,
        "Longitude(deg)": -13.411877085502985,
        "Mean Anomaly(deg)": 3.720636872770978,
        "RAAN(deg)": 84.99747970516155,
        "Satellite Name": "Test1 374",
        "Satellite Number": 374,
        "Semi-Major Axis(m)": 6980739.136638005,
        "Time(s)": 60
    },
    {
        "Altitude(m)": 604553.6241008718,
        "Argument of Periapsis(deg)": 0.0007293262139307483,
        "Eccentricity": 0.0,
        "Inclination(deg)": 60.0,
        "Latitude(deg)": 3.689639792559242,
        "Longitude(deg)": -13.142626498249122,
        "Mean Anomaly(deg)": 4.340743018232819,
        "RAAN(deg)": 84.9970596560218,
        "Satellite Name": "Test1 374",
        "Satellite Number": 374,
        "Semi-Major Axis(m)": 6980739.136638005,
        "Time(s)": 70
    },
    {
        "Altitude(m)": 604507.240447455,
        "Argument of Periapsis(deg)": 0.0008335156730637124,
        "Eccentricity": 0.0,
        "Inclination(deg)": 60.0,
        "Latitude(deg)": 4.229683721084395,
        "Longitude(deg)": -12.872995551704125,
        "Mean Anomaly(deg)": 4.960849163694646,
        "RAAN(deg)": 84.99663960688207,
        "Satellite Name": "Test1 374",
        "Satellite Number": 374,
        "Semi-Major Axis(m)": 6980739.136638005,
        "Time(s)": 80
    },
    {
        "Altitude(m)": 604464.0974365697,
        "Argument of Periapsis(deg)": 0.0009377051321966765,
        "Eccentricity": 0.0,
        "Inclination(deg)": 60.0,
        "Latitude(deg)": 4.7696040234098245,
        "Longitude(deg)": -12.602928988618888,
        "Mean Anomaly(deg)": 5.580955309156474,
        "RAAN(deg)": 84.99621955774232,
        "Satellite Name": "Test1 374",
        "Satellite Number": 374,
        "Semi-Major Axis(m)": 6980739.136638005,
        "Time(s)": 90
    },
    {
        "Altitude(m)": 604424.1907736778,
        "Argument of Periapsis(deg)": 0.0010418945913296407,
        "Eccentricity": 0.0,
        "Inclination(deg)": 60.0,
        "Latitude(deg)": 5.3093832533745635,
        "Longitude(deg)": -12.332370789186239,
        "Mean Anomaly(deg)": 6.2010614546183005,
        "RAAN(deg)": 84.99579950860257,
        "Satellite Name": "Test1 374",
        "Satellite Number": 374,
        "Semi-Major Axis(m)": 6980739.136638005,
        "Time(s)": 100
    },
    {
        "Altitude(m)": 604387.5146532214,
        "Argument of Periapsis(deg)": 0.0011460840504626045,
        "Eccentricity": 0.0,
        "Inclination(deg)": 60.0,
        "Latitude(deg)": 5.849003872668639,
        "Longitude(deg)": -12.061265146637586,
        "Mean Anomaly(deg)": 6.821167600080129,
        "RAAN(deg)": 84.99537945946282,
        "Satellite Name": "Test1 374",
        "Satellite Number": 374,
        "Semi-Major Axis(m)": 6980739.136638005,
        "Time(s)": 110
    },
    {
        "Altitude(m)": 604354.0617643388,
        "Argument of Periapsis(deg)": 0.0012502735095955685,
        "Eccentricity": 0.0,
        "Inclination(deg)": 60.0,
        "Latitude(deg)": 6.388448240358639,
        "Longitude(deg)": -11.789555929702667,
        "Mean Anomaly(deg)": 7.441273745541969,
        "RAAN(deg)": 84.99495941032309,
        "Satellite Name": "Test1 374",
        "Satellite Number": 374,
        "Semi-Major Axis(m)": 6980739.136638005,
        "Time(s)": 120
    },
    {
        "Altitude(m)": 604323.8232972835,
        "Argument of Periapsis(deg)": 0.0013544629687285324,
        "Eccentricity": 0.0,
        "Inclination(deg)": 60.0,
        "Latitude(deg)": 6.927698602277043,
        "Longitude(deg)": -11.517186144777197,
        "Mean Anomaly(deg)": 8.061379891003797,
        "RAAN(deg)": 84.99453936118334,
        "Satellite Name": "Test1 374",
        "Satellite Number": 374,
        "Semi-Major Axis(m)": 6980739.136638005,
        "Time(s)": 130
    },
    {
        "Altitude(m)": 604296.7889505771,
        "Argument of Periapsis(deg)": 0.0014586524278614966,
        "Eccentricity": 0.0,
        "Inclination(deg)": 60.0,
        "Latitude(deg)": 7.466737080258237,
        "Longitude(deg)": -11.24409891064174,
        "Mean Anomaly(deg)": 8.681486036465625,
        "RAAN(deg)": 84.99411931204361,
        "Satellite Name": "Test1 374",
        "Satellite Number": 374,
        "Semi-Major Axis(m)": 6980739.136638005,
        "Time(s)": 140
    },
    {
        "Altitude(m)": 604272.9469389098,
        "Argument of Periapsis(deg)": 0.0015628418869944607,
        "Eccentricity": 0.0,
        "Inclination(deg)": 60.0,
        "Latitude(deg)": 8.005545661211627,
        "Longitude(deg)": -10.970236919956506,
        "Mean Anomaly(deg)": 9.301592181927452,
        "RAAN(deg)": 84.99369926290386,
        "Satellite Name": "Test1 374",
        "Satellite Number": 374,
        "Semi-Major Axis(m)": 6980739.136638005,
        "Time(s)": 150
    },
    {
        "Altitude(m)": 604252.2840017502,
        "Argument of Periapsis(deg)": 0.0016670313461274247,
        "Eccentricity": 0.0,
        "Inclination(deg)": 60.0,
        "Latitude(deg)": 8.544106186014465,
        "Longitude(deg)": -10.695541900375252,
        "Mean Anomaly(deg)": 9.921698327389292,
        "RAAN(deg)": 84.99327921376413,
        "Satellite Name": "Test1 374",
        "Satellite Number": 374,
        "Semi-Major Axis(m)": 6980739.136638005,
        "Time(s)": 160
    },
    {
        "Altitude(m)": 604234.785412701,
        "Argument of Periapsis(deg)": 0.0017712208052603888,
        "Eccentricity": 0.0,
        "Inclination(deg)": 60.0,
        "Latitude(deg)": 9.082400338206211,
        "Longitude(deg)": -10.419955588122363,
        "Mean Anomaly(deg)": 10.541804472851119,
        "RAAN(deg)": 84.99285916462438,
        "Satellite Name": "Test1 374",
        "Satellite Number": 374,
        "Semi-Major Axis(m)": 6980739.136638005,
        "Time(s)": 170
    },
    {
        "Altitude(m)": 604220.4349895348,
        "Argument of Periapsis(deg)": 0.001875410264393353,
        "Eccentricity": 0.0,
        "Inclination(deg)": 60.0,
        "Latitude(deg)": 9.62040963247465,
        "Longitude(deg)": -10.143419188256956,
        "Mean Anomaly(deg)": 11.161910618312948,
        "RAAN(deg)": 84.99243911548464,
        "Satellite Name": "Test1 374",
        "Satellite Number": 374,
        "Semi-Major Axis(m)": 6980739.136638005,
        "Time(s)": 180
    },
    {
        "Altitude(m)": 604209.2151049749,
        "Argument of Periapsis(deg)": 0.0019795997235263173,
        "Eccentricity": 0.0,
        "Inclination(deg)": 60.0,
        "Latitude(deg)": 10.158115402914662,
        "Longitude(deg)": -9.865872834466941,
        "Mean Anomaly(deg)": 11.782016763774774,
        "RAAN(deg)": 84.9920190663449,
        "Satellite Name": "Test1 374",
        "Satellite Number": 374,
        "Semi-Major Axis(m)": 6980739.136638005,
        "Time(s)": 190
    }
]